1 22877U 93068A   15152.41801186  .00000047  00000-0  00000+0 0  9995
2 22877  53.8608 129.2919 0111300  60.1690  24.6028  2.00561543158258
